{{expand|time=2017-12-23T05:43:24+00:00}}
{{Infobox Planet  
| name = 606 Brangäne
| image = 
| caption = 
| discovery=yes | physical_characteristics = yes | bgcolour=#FFFFC0
| discovery_ref = 
| discoverer = [[奥古斯特·科普夫|奥古斯特·科普夫]]
| discovery_site = [[海德堡|海德堡]]（[[天文台编号列表|024]]）
| discovered =  1906年9月18日
| mp_name = 606
| alt_names = 1906 VB
| named_after = 布兰甘特
| mp_category=[[小行星带|主带小行星]]
| orbit_ref = <ref>[http://ssd.jpl.nasa.gov/sbdb.cgi?sstr=606 606 Brangäne (1906 VB)]</ref>
| epoch = 2011年8月27日
| semimajor= 2.585942189363202AU
| perihelion=2.015213767097479AU
| aphelion= 3.156670611628924[[天文单位|AU]]
| eccentricity =0.2207042464496344			
| period =1518.891124628992[[日|地球日]]<br>4.16[[年|地球年]] 
| inclination=8.623050440965047[[角度|°]]
| asc_node=318.7453523052177°
| arg_peri=57.2938466920127°
| mean_anomaly=69.29803226748578°
| avg_speed=
 | dimensions=35.54千米
 | mass=
 | density=
 | surface_grav=
 | escape_velocity=
 | rotation=12.2950小时
 | spectral_type=[[K-型小行星|K]]
 | magnitude=
 | abs_magnitude=10.38
 | albedo=0.0986
 | single_temperature=
}}
'''小行星606'''（'''606 Brangäne'''），是由[[德国|德国]][[天文学家|天文学家]][[奥古斯特·科普夫|奥古斯特·科普夫]]于1906年9月18日在德国[[海德堡|海德堡]]发现的[[小行星带|主带]][[小行星|小行星]]。

小行星605以德国作曲家[[理查德·瓦格纳|理查德·瓦格纳]]的[[歌剧|歌剧]]《[[特里斯坦与伊索尔德|特里斯坦与伊索尔德]]》中的登场人物布兰甘特命名。

== 参考资料 ==
{{Reflist}}

{{Minor Planet Number|(605)[[小行星605|小行星605]]|(607)[[小行星607|小行星607]]}}

[[Category:小行星带天体|Category:小行星带天体]]
[[Category:1906年发现的小行星|Category:1906年发现的小行星]]
[[Category:K-型小行星|Category:K-型小行星]]